NORAD_CAT_ID,OBJECT_NAME,OBJECT_TYPE,EPOCH,MEAN_MOTION,ECCENTRICITY,INCLINATION,RA_OF_ASC_NODE,ARG_OF_PERICENTER,MEAN_ANOMALY,BSTAR,MEAN_MOTION_DOT,MEAN_MOTION_DDOT,TLE_LINE0,TLE_LINE1,TLE_LINE2,SEMIMAJOR_AXIS,PERIOD,APOGEE,PERIGEE,DECAYED
52852.0,STARLINK-4184,PAYLOAD,2024-05-01 11:19:46,15.088445,0.0001667,53.2178,184.2711,97.3125,262.8057,0.00013351,1.838e-05,0.0,0 STARLINK-4184,1 52852U 22062Y   24122.47206113  .00001838  00000-0  13351-3 0  9995,2 52852  53.2178 184.2711 0001667  97.3125 262.8057 15.08844500104179,6917.867,95.437,540.885,538.578,0.0
52852.0,STARLINK-4184,PAYLOAD,2024-05-01 20:52:04,15.08850342,0.0001751,53.2153,182.4823,79.4545,280.6644,0.00015683,2.209e-05,0.0,0 STARLINK-4184,1 52852U 22062Y   24122.86949780  .00002209  00000-0  15683-3 0  9995,2 52852  53.2153 182.4823 0001751  79.4545 280.6644 15.08850342103740,6917.849,95.437,540.925,538.502,0.0
52852.0,STARLINK-4184,PAYLOAD,2024-05-02 12:45:56,15.08839317,0.000166,53.2166,179.5115,84.8124,275.3058,1.9749e-05,2.6e-07,0.0,0 STARLINK-4184,1 52852U 22062Y   24123.53190301  .00000026  00000-0  19749-4 0  9990,2 52852  53.2166 179.5115 0001660  84.8124 275.3058 15.08839317104332,6917.882,95.438,540.896,538.599,0.0
52852.0,STARLINK-4184,PAYLOAD,2024-05-03 11:01:19,15.08850772,0.0001567,53.215,175.3473,87.9016,272.2156,-5.9459e-05,-1.235e-05,0.0,0 STARLINK-4184,1 52852U 22062Y   24124.45925628 -.00001235  00000-0 -59459-4 0  9997,2 52852  53.2150 175.3473 0001567  87.9016 272.2156 15.08850772104474,6917.847,95.437,540.796,538.628,0.0
52852.0,STARLINK-4184,PAYLOAD,2024-05-03 20:33:38,15.08850474,0.000157,53.2152,173.5639,88.6382,271.4789,0.00010325,1.356e-05,0.0,0 STARLINK-4184,1 52852U 22062Y   24124.85669587  .00001356  00000-0  10325-3 0  9990,2 52852  53.2152 173.5639 0001570  88.6382 271.4789 15.08850474104043,6917.848,95.437,540.799,538.627,0.0
52852.0,STARLINK-4184,PAYLOAD,2024-05-04 10:52:07,15.0882779,0.00015,53.2149,170.8869,90.836,269.2804,-9.4345e-05,-1.789e-05,0.0,0 STARLINK-4184,1 52852U 22062Y   24125.45286884 -.00001789  00000-0 -94345-4 0  9999,2 52852  53.2149 170.8869 0001500  90.8360 269.2804 15.08827790104620,6917.918,95.438,540.82,538.745,0.0
52852.0,STARLINK-4184,PAYLOAD,2024-05-05 12:18:18,15.08840749,0.0001424,53.215,166.1283,94.8585,265.2569,0.0004417,6.749e-05,0.0,0 STARLINK-4184,1 52852U 22062Y   24126.51271338  .00006749  00000-0  44170-3 0  9994,2 52852  53.2150 166.1283 0001424  94.8585 265.2569 15.08840749104788,6917.878,95.438,540.728,538.758,0.0
52852.0,STARLINK-4184,PAYLOAD,2024-05-06 08:58:18,15.08867176,0.0001484,53.215,162.2635,91.7677,268.3485,0.0010301,0.00016156,0.0,0 STARLINK-4184,1 52852U 22062Y   24127.37382715  .00016156  00000-0  10301-2 0  9992,2 52852  53.2150 162.2635 0001484  91.7677 268.3485 15.08867176104919,6917.797,95.436,540.689,538.636,0.0
52852.0,STARLINK-4184,PAYLOAD,2024-05-07 02:27:32,15.08858396,0.0001553,53.2153,158.9926,93.4645,266.6524,0.0002764,4.116e-05,0.0,0 STARLINK-4184,1 52852U 22062Y   24128.10246063  .00004116  00000-0  27640-3 0  9997,2 52852  53.2153 158.9926 0001553  93.4645 266.6524 15.08858396105020,6917.824,95.436,540.763,538.615,0.0
52852.0,STARLINK-4184,PAYLOAD,2024-05-07 11:59:51,15.08842316,0.0001389,53.2147,157.2058,95.8776,264.2375,1.1396e-05,-1.07e-06,0.0,0 STARLINK-4184,1 52852U 22062Y   24128.49990500 -.00000107  00000-0  11396-4 0  9990,2 52852  53.2147 157.2058 0001389  95.8776 264.2375 15.08842316105088,6917.873,95.437,540.699,538.777,0.0
52852.0,STARLINK-4184,PAYLOAD,2024-05-07 18:21:24,15.08845398,0.0001462,53.2158,156.0164,94.8685,265.2474,4.2033e-05,3.81e-06,0.0,0 STARLINK-4184,1 52852U 22062Y   24128.76486222  .00000381  00000-0  42033-4 0  9996,2 52852  53.2158 156.0164 0001462  94.8685 265.2474 15.08845398104639,6917.864,95.437,540.74,538.717,0.0
52852.0,STARLINK-4184,PAYLOAD,2024-05-08 08:39:52,15.08844838,0.0001389,53.2161,153.3426,100.827,259.2879,-3.5665e-05,-8.56e-06,0.0,0 STARLINK-4184,1 52852U 22062Y   24129.36102378 -.00000856  00000-0 -35665-4 0  9992,2 52852  53.2161 153.3426 0001389 100.8270 259.2879 15.08844838104720,6917.866,95.437,540.691,538.77,0.0
52852.0,STARLINK-4184,PAYLOAD,2024-05-08 18:12:10,15.08850009,0.0001385,53.2163,151.5583,99.1976,260.9173,-2.0221e-05,-6.1e-06,0.0,0 STARLINK-4184,1 52852U 22062Y   24129.75845841 -.00000610  00000-0 -20221-4 0  9994,2 52852  53.2163 151.5583 0001385  99.1976 260.9173 15.08850009105279,6917.85,95.437,540.673,538.757,0.0
52852.0,STARLINK-4184,PAYLOAD,2024-05-09 05:19:53,15.08843403,0.0001342,53.2165,149.477,105.6547,254.4593,-7.2107e-05,-1.435e-05,0.0,0 STARLINK-4184,1 52852U 22062Y   24130.22214475 -.00001435  00000-0 -72107-4 0  9997,2 52852  53.2165 149.4770 0001342 105.6547 254.4593 15.08843403105347,6917.87,95.437,540.663,538.807,0.0
52852.0,STARLINK-4184,PAYLOAD,2024-05-09 10:06:02,15.08835791,0.0001447,53.2166,148.5849,103.0228,257.0925,7.5067e-05,9.07e-06,0.0,0 STARLINK-4184,1 52852U 22062Y   24130.42086589  .00000907  00000-0  75067-4 0  9991,2 52852  53.2166 148.5849 0001447 103.0228 257.0925 15.08835791104886,6917.893,95.438,540.759,538.757,0.0
52852.0,STARLINK-4184,PAYLOAD,2024-05-09 18:02:58,15.08841599,0.0001474,53.2171,147.0981,100.582,259.5338,8.927e-05,1.133e-05,0.0,0 STARLINK-4184,1 52852U 22062Y   24130.75206378  .00001133  00000-0  89270-4 0  9990,2 52852  53.2171 147.0981 0001474 100.5820 259.5338 15.08841599104937,6917.876,95.437,540.76,538.721,0.0
52852.0,STARLINK-4184,PAYLOAD,2024-05-10 09:56:50,15.08833615,0.0001419,53.2165,144.1243,95.2427,264.8727,5.4422e-05,5.78e-06,0.0,0 STARLINK-4184,1 52852U 22062Y   24131.41447209  .00000578  00000-0  54422-4 0  9997,2 52852  53.2165 144.1243 0001419  95.2427 264.8727 15.08833615105528,6917.9,95.438,540.747,538.783,0.0
52852.0,STARLINK-4184,PAYLOAD,2024-05-11 05:01:27,15.08843317,0.0001481,53.2175,140.5561,93.2221,266.894,0.00014129,1.962e-05,0.0,0 STARLINK-4184,1 52852U 22062Y   24132.20934731  .00001962  00000-0  14129-3 0  9993,2 52852  53.2175 140.5561 0001481  93.2221 266.8940 15.08843317105643,6917.87,95.437,540.76,538.711,0.0
52852.0,STARLINK-4184,PAYLOAD,2024-05-11 08:12:12,15.08863324,0.0001501,53.2169,139.9604,90.9663,269.1501,0.00035243,5.329e-05,0.0,0 STARLINK-4184,1 52852U 22062Y   24132.34181664  .00005329  00000-0  35243-3 0  9998,2 52852  53.2169 139.9604 0001501  90.9663 269.1501 15.08863324105664,6917.809,95.436,540.712,538.636,0.0
52852.0,STARLINK-4184,PAYLOAD,2024-05-11 17:44:31,15.08876986,0.0001665,53.2161,138.1713,71.273,288.8443,0.00047517,7.29e-05,0.0,0 STARLINK-4184,1 52852U 22062Y   24132.73924776  .00007290  00000-0  47517-3 0  9996,2 52852  53.2161 138.1713 0001665  71.2730 288.8443 15.08876986105230,6917.767,95.435,540.784,538.481,0.0
52852.0,STARLINK-4184,PAYLOAD,2024-05-12 04:52:14,15.08817178,0.0001553,53.2151,136.0939,75.2787,284.8377,-0.00066227,-0.00010806,0.0,0 STARLINK-4184,1 52852U 22062Y   24133.20295071 -.00010806  00000-0 -66227-3 0  9996,2 52852  53.2151 136.0939 0001553  75.2787 284.8377 15.08817178105799,6917.95,95.439,540.89,538.741,0.0
52852.0,STARLINK-4184,PAYLOAD,2024-05-12 06:27:37,15.08814305,0.0001532,53.2148,135.7963,73.0113,287.1047,-0.00086473,-0.00014014,0.0,0 STARLINK-4184,1 52852U 22062Y   24133.26918912 -.00014014  00000-0 -86473-3 0  9998,2 52852  53.2148 135.7963 0001532  73.0113 287.1047 15.08814305105311,6917.959,95.439,540.884,538.764,0.0
52852.0,STARLINK-4184,PAYLOAD,2024-05-12 17:35:21,15.08805587,0.0001528,53.2147,133.7149,71.9713,288.1445,0.00031659,4.749e-05,0.0,0 STARLINK-4184,1 52852U 22062Y   24133.73288321  .00004749  00000-0  31659-3 0  9992,2 52852  53.2147 133.7149 0001528  71.9713 288.1445 15.08805587105384,6917.986,95.44,540.908,538.794,0.0
52852.0,STARLINK-4184,PAYLOAD,2024-05-13 04:43:01,15.08878682,0.0001575,53.2161,131.6318,65.8189,294.2967,0.0023923,0.00038032,0.0,0 STARLINK-4184,1 52852U 22062Y   24134.19655043  .00038032  00000-0  23923-2 0  9998,2 52852  53.2161 131.6318 0001575  65.8189 294.2967 15.08878682105941,6917.762,95.435,540.717,538.538,0.0
52852.0,STARLINK-4184,PAYLOAD,2024-05-13 09:29:10,15.08913835,0.0001424,53.216,130.7394,68.0949,292.0195,0.00094363,0.00014792,0.0,0 STARLINK-4184,1 52852U 22062Y   24134.39525681  .00014792  00000-0  94363-3 0  9998,2 52852  53.2160 130.7394 0001424  68.0949 292.0195 15.08913835105978,6917.655,95.433,540.505,538.535,0.0
52852.0,STARLINK-4184,PAYLOAD,2024-05-14 04:33:46,15.08855307,0.0001118,53.2155,127.1722,66.6149,293.496,-0.0016131,-0.00025879,0.0,0 STARLINK-4184,1 52852U 22062Y   24135.19011809 -.00025879  00000-0 -16131-2 0  9995,2 52852  53.2155 127.1722 0001118  66.6149 293.4960 15.08855307106091,6917.834,95.437,540.472,538.925,0.0
52852.0,STARLINK-4184,PAYLOAD,2024-05-14 09:19:55,15.08848571,0.0001371,53.2156,126.2801,82.4577,277.6571,-0.00085076,-0.00013805,0.0,0 STARLINK-4184,1 52852U 22062Y   24135.38884187 -.00013805  00000-0 -85076-3 0  9994,2 52852  53.2156 126.2801 0001371  82.4577 277.6571 15.08848571105638,6917.854,95.437,540.668,538.771,0.0
52852.0,STARLINK-4184,PAYLOAD,2024-05-15 05:59:57,15.08831156,0.0001266,53.2155,122.4141,77.8937,282.2197,-0.00046363,-7.657e-05,0.0,0 STARLINK-4184,1 52852U 22062Y   24136.24997525 -.00007657  00000-0 -46363-3 0  9995,2 52852  53.2155 122.4141 0001266  77.8937 282.2197 15.08831156106259,6917.907,95.438,540.648,538.897,0.0
52852.0,STARLINK-4184,PAYLOAD,2024-05-15 09:10:44,15.08829758,0.0001327,53.2156,121.8196,79.8962,280.2179,-0.00041783,-6.93e-05,0.0,0 STARLINK-4184,1 52852U 22062Y   24136.38245685 -.00006930  00000-0 -41783-3 0  9997,2 52852  53.2156 121.8196 0001327  79.8962 280.2179 15.08829758105781,6917.912,95.438,540.695,538.859,0.0
52852.0,STARLINK-4184,PAYLOAD,2024-05-16 05:50:45,15.08840503,0.0001289,53.2158,117.9515,75.2291,284.8844,0.00057139,8.818e-05,0.0,0 STARLINK-4184,1 52852U 22062Y   24137.24358456  .00008818  00000-0  57139-3 0  9991,2 52852  53.2158 117.9515 0001289  75.2291 284.8844 15.08840503106406,6917.879,95.438,540.636,538.852,0.0
